[{"OBJECT_NAME":"STARLINK-35521","OBJECT_ID":"2025-225G","EPOCH":"2026-03-09T12:51:17.125632","MEAN_MOTION":15.30192825,"ECCENTRICITY":0.00012729,"INCLINATION":53.1593,"RA_OF_ASC_NODE":166.4577,"ARG_OF_PERICENTER":78.6148,"MEAN_ANOMALY":281.4996,"EPHEMERIS_TYPE":0,"CLASSIFICATION_TYPE":"U","NORAD_CAT_ID":65916,"ELEMENT_SET_NO":999,"REV_AT_EPOCH":2438,"BSTAR":0.00069808367,"MEAN_MOTION_DOT":0.00020368,"MEAN_MOTION_DDOT":0},{"OBJECT_NAME":"PEGASUS DEB","OBJECT_ID":"1994-029AG","EPOCH":"2026-03-09T11:16:42.963744","MEAN_MOTION":15.37636263,"ECCENTRICITY":0.0031206,"INCLINATION":82.0362,"RA_OF_ASC_NODE":86.2933,"ARG_OF_PERICENTER":155.6019,"MEAN_ANOMALY":204.671,"EPHEMERIS_TYPE":0,"CLASSIFICATION_TYPE":"U","NORAD_CAT_ID":23986,"ELEMENT_SET_NO":999,"REV_AT_EPOCH":61542,"BSTAR":0.00061808813,"MEAN_MOTION_DOT":0.00023279,"MEAN_MOTION_DDOT":0}]
